CCSDS_OMM_VERS = 2.0
CREATION_DATE  = 
ORIGINATOR     = 

OBJECT_NAME    = UNKNOWN
OBJECT_ID      = 
CENTER_NAME    = EARTH
REF_FRAME      = TEME
TIME_SYSTEM    = UTC
MEAN_ELEMENT_THEORY = SGP/SGP4

EPOCH          = 2025-10-27T09:06:26.875008
MEAN_MOTION    = 13.35560083
ECCENTRICITY   = .0060633
INCLINATION    = 99.7065
RA_OF_ASC_NODE = 156.6181
ARG_OF_PERICENTER = 15.1144
MEAN_ANOMALY   = 160.1687

EPHEMERIS_TYPE = 0
CLASSIFICATION_TYPE = U
NORAD_CAT_ID   = 87541
ELEMENT_SET_NO = 999
REV_AT_EPOCH   = 57584
BSTAR          = .71494E-3
MEAN_MOTION_DOT = .325E-5
MEAN_MOTION_DDOT = 0

CCSDS_OMM_VERS = 2.0
CREATION_DATE  = 
ORIGINATOR     = 

OBJECT_NAME    = UNKNOWN
OBJECT_ID      = 
CENTER_NAME    = EARTH
REF_FRAME      = TEME
TIME_SYSTEM    = UTC
MEAN_ELEMENT_THEORY = SGP/SGP4

EPOCH          = 2025-11-06T02:17:49.732800
MEAN_MOTION    = 13.53001449
ECCENTRICITY   = .070365
INCLINATION    = 65.6694
RA_OF_ASC_NODE = 84.5371
ARG_OF_PERICENTER = 243.6078
MEAN_ANOMALY   = 109.1121

EPHEMERIS_TYPE = 0
CLASSIFICATION_TYPE = U
NORAD_CAT_ID   = 87553
ELEMENT_SET_NO = 999
REV_AT_EPOCH   = 58629
BSTAR          = .17691E-2
MEAN_MOTION_DOT = .5898E-4
MEAN_MOTION_DDOT = 0

CCSDS_OMM_VERS = 2.0
CREATION_DATE  = 
ORIGINATOR     = 

OBJECT_NAME    = UNKNOWN
OBJECT_ID      = 
CENTER_NAME    = EARTH
REF_FRAME      = TEME
TIME_SYSTEM    = UTC
MEAN_ELEMENT_THEORY = SGP/SGP4

EPOCH          = 2025-11-07T20:43:24.405024
MEAN_MOTION    = 13.27308593
ECCENTRICITY   = .0051569
INCLINATION    = 101.7198
RA_OF_ASC_NODE = 162.8166
ARG_OF_PERICENTER = 81.4563
MEAN_ANOMALY   = 279.2391

EPHEMERIS_TYPE = 0
CLASSIFICATION_TYPE = U
NORAD_CAT_ID   = 87557
ELEMENT_SET_NO = 999
REV_AT_EPOCH   = 56040
BSTAR          = .13442E-1
MEAN_MOTION_DOT = .6025E-4
MEAN_MOTION_DDOT = 0

CCSDS_OMM_VERS = 2.0
CREATION_DATE  = 
ORIGINATOR     = 

OBJECT_NAME    = UNKNOWN
OBJECT_ID      = 
CENTER_NAME    = EARTH
REF_FRAME      = TEME
TIME_SYSTEM    = UTC
MEAN_ELEMENT_THEORY = SGP/SGP4

EPOCH          = 2025-11-06T09:48:52.712352
MEAN_MOTION    = 12.32150305
ECCENTRICITY   = .017377
INCLINATION    = 102.0166
RA_OF_ASC_NODE = 8.9480
ARG_OF_PERICENTER = 359.8242
MEAN_ANOMALY   = 10.8138

EPHEMERIS_TYPE = 0
CLASSIFICATION_TYPE = U
NORAD_CAT_ID   = 87561
ELEMENT_SET_NO = 999
REV_AT_EPOCH   = 53796
BSTAR          = .36768E-3
MEAN_MOTION_DOT = .3E-7
MEAN_MOTION_DDOT = 0

CCSDS_OMM_VERS = 2.0
CREATION_DATE  = 
ORIGINATOR     = 

OBJECT_NAME    = UNKNOWN
OBJECT_ID      = 
CENTER_NAME    = EARTH
REF_FRAME      = TEME
TIME_SYSTEM    = UTC
MEAN_ELEMENT_THEORY = SGP/SGP4

EPOCH          = 2025-10-26T09:51:45.113184
MEAN_MOTION    = 14.05821183
ECCENTRICITY   = .0172145
INCLINATION    = 99.9429
RA_OF_ASC_NODE = 286.4074
ARG_OF_PERICENTER = 299.3560
MEAN_ANOMALY   = 59.0506

EPHEMERIS_TYPE = 0
CLASSIFICATION_TYPE = U
NORAD_CAT_ID   = 87565
ELEMENT_SET_NO = 999
REV_AT_EPOCH   = 60978
BSTAR          = .11183E-2
MEAN_MOTION_DOT = .2035E-4
MEAN_MOTION_DDOT = 0

CCSDS_OMM_VERS = 2.0
CREATION_DATE  = 
ORIGINATOR     = 

OBJECT_NAME    = UNKNOWN
OBJECT_ID      = 
CENTER_NAME    = EARTH
REF_FRAME      = TEME
TIME_SYSTEM    = UTC
MEAN_ELEMENT_THEORY = SGP/SGP4

EPOCH          = 2025-11-05T08:15:02.256768
MEAN_MOTION    = 12.68539304
ECCENTRICITY   = .005556
INCLINATION    = 101.9892
RA_OF_ASC_NODE = 125.2590
ARG_OF_PERICENTER = 326.9085
MEAN_ANOMALY   = 152.0475

EPHEMERIS_TYPE = 0
CLASSIFICATION_TYPE = U
NORAD_CAT_ID   = 87569
ELEMENT_SET_NO = 999
REV_AT_EPOCH   = 55372
BSTAR          = .52059E-4
MEAN_MOTION_DOT = -.38E-6
MEAN_MOTION_DDOT = 0

CCSDS_OMM_VERS = 2.0
CREATION_DATE  = 
ORIGINATOR     = 

OBJECT_NAME    = UNKNOWN
OBJECT_ID      = 
CENTER_NAME    = EARTH
REF_FRAME      = TEME
TIME_SYSTEM    = UTC
MEAN_ELEMENT_THEORY = SGP/SGP4

EPOCH          = 2025-11-02T21:57:36.121824
MEAN_MOTION    = 14.40025145
ECCENTRICITY   = .0021228
INCLINATION    = 74.0243
RA_OF_ASC_NODE = 176.5367
ARG_OF_PERICENTER = 224.6310
MEAN_ANOMALY   = 135.3136

EPHEMERIS_TYPE = 0
CLASSIFICATION_TYPE = U
NORAD_CAT_ID   = 87587
ELEMENT_SET_NO = 999
REV_AT_EPOCH   = 62807
BSTAR          = .90254E-4
MEAN_MOTION_DOT = .258E-5
MEAN_MOTION_DDOT = 0

CCSDS_OMM_VERS = 2.0
CREATION_DATE  = 
ORIGINATOR     = 

OBJECT_NAME    = UNKNOWN
OBJECT_ID      = 
CENTER_NAME    = EARTH
REF_FRAME      = TEME
TIME_SYSTEM    = UTC
MEAN_ELEMENT_THEORY = SGP/SGP4

EPOCH          = 2025-11-03T01:22:49.122336
MEAN_MOTION    = 14.10246965
ECCENTRICITY   = .0027121
INCLINATION    = 98.7933
RA_OF_ASC_NODE = 345.0708
ARG_OF_PERICENTER = 38.2754
MEAN_ANOMALY   = 352.5660

EPHEMERIS_TYPE = 0
CLASSIFICATION_TYPE = U
NORAD_CAT_ID   = 87590
ELEMENT_SET_NO = 999
REV_AT_EPOCH   = 14865
BSTAR          = .43607E-3
MEAN_MOTION_DOT = .732E-5
MEAN_MOTION_DDOT = 0

CCSDS_OMM_VERS = 2.0
CREATION_DATE  = 
ORIGINATOR     = 

OBJECT_NAME    = UNKNOWN
OBJECT_ID      = 
CENTER_NAME    = EARTH
REF_FRAME      = TEME
TIME_SYSTEM    = UTC
MEAN_ELEMENT_THEORY = SGP/SGP4

EPOCH          = 2025-10-25T07:15:25.084224
MEAN_MOTION    = 12.46829466
ECCENTRICITY   = .0634293
INCLINATION    = 66.0318
RA_OF_ASC_NODE = 243.8186
ARG_OF_PERICENTER = 160.2602
MEAN_ANOMALY   = 352.5311

EPHEMERIS_TYPE = 0
CLASSIFICATION_TYPE = U
NORAD_CAT_ID   = 87616
ELEMENT_SET_NO = 999
REV_AT_EPOCH   = 53019
BSTAR          = .11794E-2
MEAN_MOTION_DOT = .299E-5
MEAN_MOTION_DDOT = 0

CCSDS_OMM_VERS = 2.0
CREATION_DATE  = 
ORIGINATOR     = 

OBJECT_NAME    = UNKNOWN
OBJECT_ID      = 
CENTER_NAME    = EARTH
REF_FRAME      = TEME
TIME_SYSTEM    = UTC
MEAN_ELEMENT_THEORY = SGP/SGP4

EPOCH          = 2025-11-06T18:28:01.331904
MEAN_MOTION    = 14.69225721
ECCENTRICITY   = .0100212
INCLINATION    = 98.6761
RA_OF_ASC_NODE = 245.9452
ARG_OF_PERICENTER = 1.7820
MEAN_ANOMALY   = 358.3721

EPHEMERIS_TYPE = 0
CLASSIFICATION_TYPE = U
NORAD_CAT_ID   = 87624
ELEMENT_SET_NO = 999
REV_AT_EPOCH   = 57499
BSTAR          = .20843E-2
MEAN_MOTION_DOT = .13224E-3
MEAN_MOTION_DDOT = 0

CCSDS_OMM_VERS = 2.0
CREATION_DATE  = 
ORIGINATOR     = 

OBJECT_NAME    = UNKNOWN
OBJECT_ID      = 
CENTER_NAME    = EARTH
REF_FRAME      = TEME
TIME_SYSTEM    = UTC
MEAN_ELEMENT_THEORY = SGP/SGP4

EPOCH          = 2025-11-05T05:08:54.869280
MEAN_MOTION    = 14.60300391
ECCENTRICITY   = .0032257
INCLINATION    = 100.2705
RA_OF_ASC_NODE = 115.5219
ARG_OF_PERICENTER = 29.9948
MEAN_ANOMALY   = 330.3085

EPHEMERIS_TYPE = 0
CLASSIFICATION_TYPE = U
NORAD_CAT_ID   = 87650
ELEMENT_SET_NO = 999
REV_AT_EPOCH   = 7428
BSTAR          = .2456E-2
MEAN_MOTION_DOT = .11903E-3
MEAN_MOTION_DDOT = 0

CCSDS_OMM_VERS = 2.0
CREATION_DATE  = 
ORIGINATOR     = 

OBJECT_NAME    = UNKNOWN
OBJECT_ID      = 
CENTER_NAME    = EARTH
REF_FRAME      = TEME
TIME_SYSTEM    = UTC
MEAN_ELEMENT_THEORY = SGP/SGP4

EPOCH          = 2025-11-04T15:55:52.663872
MEAN_MOTION    = 14.27538701
ECCENTRICITY   = .0060768
INCLINATION    = 70.8600
RA_OF_ASC_NODE = 88.9141
ARG_OF_PERICENTER = 329.3240
MEAN_ANOMALY   = 30.4340

EPHEMERIS_TYPE = 0
CLASSIFICATION_TYPE = U
NORAD_CAT_ID   = 87672
ELEMENT_SET_NO = 999
REV_AT_EPOCH   = 61902
BSTAR          = .99543E-3
MEAN_MOTION_DOT = .2448E-4
MEAN_MOTION_DDOT = 0

CCSDS_OMM_VERS = 2.0
CREATION_DATE  = 
ORIGINATOR     = 

OBJECT_NAME    = UNKNOWN
OBJECT_ID      = 
CENTER_NAME    = EARTH
REF_FRAME      = TEME
TIME_SYSTEM    = UTC
MEAN_ELEMENT_THEORY = SGP/SGP4

EPOCH          = 2025-11-03T09:29:40.411968
MEAN_MOTION    = 13.70977687
ECCENTRICITY   = .0159286
INCLINATION    = 66.7363
RA_OF_ASC_NODE = 191.8638
ARG_OF_PERICENTER = 188.7868
MEAN_ANOMALY   = 171.0406

EPHEMERIS_TYPE = 0
CLASSIFICATION_TYPE = U
NORAD_CAT_ID   = 87681
ELEMENT_SET_NO = 999
REV_AT_EPOCH   = 59644
BSTAR          = .1071E-2
MEAN_MOTION_DOT = .974E-5
MEAN_MOTION_DDOT = 0

CCSDS_OMM_VERS = 2.0
CREATION_DATE  = 
ORIGINATOR     = 

OBJECT_NAME    = UNKNOWN
OBJECT_ID      = 
CENTER_NAME    = EARTH
REF_FRAME      = TEME
TIME_SYSTEM    = UTC
MEAN_ELEMENT_THEORY = SGP/SGP4

EPOCH          = 2025-11-02T17:01:07.161024
MEAN_MOTION    = 13.99929701
ECCENTRICITY   = .0578246
INCLINATION    = 65.7922
RA_OF_ASC_NODE = 98.0272
ARG_OF_PERICENTER = 68.2218
MEAN_ANOMALY   = 297.9349

EPHEMERIS_TYPE = 0
CLASSIFICATION_TYPE = U
NORAD_CAT_ID   = 87690
ELEMENT_SET_NO = 999
REV_AT_EPOCH   = 60177
BSTAR          = .69552E-3
MEAN_MOTION_DOT = .4449E-4
MEAN_MOTION_DDOT = 0

CCSDS_OMM_VERS = 2.0
CREATION_DATE  = 
ORIGINATOR     = 

OBJECT_NAME    = UNKNOWN
OBJECT_ID      = 
CENTER_NAME    = EARTH
REF_FRAME      = TEME
TIME_SYSTEM    = UTC
MEAN_ELEMENT_THEORY = SGP/SGP4

EPOCH          = 2025-11-08T06:39:05.443776
MEAN_MOTION    = 14.63962058
ECCENTRICITY   = .0106261
INCLINATION    = 98.6742
RA_OF_ASC_NODE = 134.0269
ARG_OF_PERICENTER = 14.9664
MEAN_ANOMALY   = 164.9243

EPHEMERIS_TYPE = 0
CLASSIFICATION_TYPE = U
NORAD_CAT_ID   = 87706
ELEMENT_SET_NO = 999
REV_AT_EPOCH   = 57347
BSTAR          = .91103E-3
MEAN_MOTION_DOT = .5123E-4
MEAN_MOTION_DDOT = 0

CCSDS_OMM_VERS = 2.0
CREATION_DATE  = 
ORIGINATOR     = 

OBJECT_NAME    = UNKNOWN
OBJECT_ID      = 
CENTER_NAME    = EARTH
REF_FRAME      = TEME
TIME_SYSTEM    = UTC
MEAN_ELEMENT_THEORY = SGP/SGP4

EPOCH          = 2025-11-05T05:38:22.243488
MEAN_MOTION    = 14.91137538
ECCENTRICITY   = .0013501
INCLINATION    = 82.8678
RA_OF_ASC_NODE = 289.9434
ARG_OF_PERICENTER = 152.5938
MEAN_ANOMALY   = 207.5997

EPHEMERIS_TYPE = 0
CLASSIFICATION_TYPE = U
NORAD_CAT_ID   = 87725
ELEMENT_SET_NO = 999
REV_AT_EPOCH   = 62832
BSTAR          = .53918E-2
MEAN_MOTION_DOT = .53941E-3
MEAN_MOTION_DDOT = 0

